[{"OBJECT_NAME":"STARLINK-3819","OBJECT_ID":"2022-045U","EPOCH":"2026-03-09T15:28:28.114176","MEAN_MOTION":15.08835795,"ECCENTRICITY":0.0001299,"INCLINATION":53.2167,"RA_OF_ASC_NODE":199.3213,"ARG_OF_PERICENTER":109.9051,"MEAN_ANOMALY":250.2081,"EPHEMERIS_TYPE":0,"CLASSIFICATION_TYPE":"U","NORAD_CAT_ID":52349,"ELEMENT_SET_NO":999,"REV_AT_EPOCH":21577,"BSTAR":-2.5642e-5,"MEAN_MOTION_DOT":-6.96e-6,"MEAN_MOTION_DDOT":0},{"OBJECT_NAME":"QPS-SAR-7 (TSUKUYOMI-II)","OBJECT_ID":"2024-066F","EPOCH":"2026-03-09T22:44:25.024704","MEAN_MOTION":15.07520552,"ECCENTRICITY":3.06e-5,"INCLINATION":45.6053,"RA_OF_ASC_NODE":45.6252,"ARG_OF_PERICENTER":310.671,"MEAN_ANOMALY":49.4148,"EPHEMERIS_TYPE":0,"CLASSIFICATION_TYPE":"U","NORAD_CAT_ID":59447,"ELEMENT_SET_NO":999,"REV_AT_EPOCH":10524,"BSTAR":0.00063712098,"MEAN_MOTION_DOT":9.59e-5,"MEAN_MOTION_DDOT":0}]
